{"type":"FeatureCollection","source":"OpenStreetMap contributors (ODbL)","fetchedAt":"2026-09-18T21:55:29.105Z","features":[{"type":"Feature","geometry":{"type":"MultiPolygon","coordinates":[[[[139.780561,35.70015],[139.782757,35.694664],[139.767935,35.688591],[139.770938,35.683805],[139.758555,35.66863],[139.747606,35.669602],[139.739068,35.67358],[139.73036,35.684229],[139.73131,35.68876],[139.744431,35.702474],[139.768323,35.699489],[139.766562,35.702701],[139.772156,35.7051],[139.773393,35.701753],[139.780561,35.70015]]]]},"properties":{"name":"千代田区"}},{"type":"Feature","geometry":{"type":"MultiPolygon","coordinates":[[[[139.785413,35.69586],[139.781746,35.696301],[139.782757,35.694664],[139.780287,35.692839],[139.767935,35.688591],[139.770938,35.683805],[139.758589,35.66875],[139.763144,35.665492],[139.759521,35.658997],[139.765965,35.655477],[139.764096,35.648258],[139.768166,35.640201],[139.789773,35.654184],[139.786567,35.672868],[139.793153,35.685026],[139.788896,35.694803],[139.785413,35.69586]]]]},"properties":{"name":"中央区"}},{"type":"Feature","geometry":{"type":"MultiPolygon","coordinates":[[[[139.722938,35.656041],[139.721624,35.652361],[139.723926,35.646729],[139.716764,35.639911],[139.71735,35.635139],[139.726213,35.634889],[139.735309,35.623036],[139.73801,35.624953],[139.746441,35.623134],[139.75122,35.625274],[139.757684,35.624298],[139.757541,35.627735],[139.759433,35.627773],[139.766087,35.627772],[139.771221,35.623545],[139.78293,35.630497],[139.777029,35.637582],[139.768166,35.640201],[139.764096,35.648258],[139.765965,35.655477],[139.759521,35.658997],[139.763192,35.663988],[139.762372,35.666811],[139.743135,35.671372],[139.730002,35.682487],[139.724141,35.678677],[139.719778,35.679163],[139.719862,35.675339],[139.714837,35.672949],[139.715095,35.669645],[139.708744,35.664182],[139.7146,35.657216],[139.722938,35.656041]]]]},"properties":{"name":"港区"}},{"type":"Feature","geometry":{"type":"MultiPolygon","coordinates":[[[[139.735547,35.709231],[139.732494,35.707486],[139.720837,35.712797],[139.711946,35.714801],[139.706054,35.713529],[139.704186,35.714767],[139.704689,35.722792],[139.684395,35.722689],[139.676817,35.729904],[139.675712,35.721375],[139.673275,35.719664],[139.678917,35.718131],[139.679184,35.714771],[139.682025,35.713302],[139.680028,35.711053],[139.694286,35.711027],[139.688308,35.706926],[139.688305,35.698957],[139.683543,35.692566],[139.683158,35.688629],[139.685739,35.687765],[139.687441,35.681722],[139.702154,35.689345],[139.713706,35.681684],[139.712699,35.674422],[139.716274,35.673221],[139.719862,35.675339],[139.719778,35.679163],[139.725988,35.67944],[139.728154,35.682649],[139.731766,35.681444],[139.73131,35.68876],[139.745139,35.702529],[139.743045,35.70805],[139.735547,35.709231]]]]},"properties":{"name":"新宿区"}},{"type":"Feature","geometry":{"type":"MultiPolygon","coordinates":[[[[139.723198,35.722433],[139.724929,35.726769],[139.731963,35.724106],[139.736101,35.725208],[139.736421,35.730517],[139.741697,35.730747],[139.745292,35.73591],[139.748953,35.732832],[139.753535,35.735082],[139.763882,35.729564],[139.763416,35.7219],[139.768747,35.715727],[139.764436,35.717212],[139.76779,35.71258],[139.76659,35.708628],[139.771473,35.709144],[139.772299,35.707174],[139.770079,35.707353],[139.769856,35.703713],[139.766562,35.702701],[139.768323,35.699489],[139.745139,35.702529],[139.743045,35.70805],[139.735547,35.709231],[139.732494,35.707486],[139.717261,35.71461],[139.71827,35.717963],[139.725047,35.719785],[139.723198,35.722433]]]]},"properties":{"name":"文京区"}},{"type":"Feature","geometry":{"type":"MultiPolygon","coordinates":[[[[139.767727,35.712768],[139.764436,35.717212],[139.768747,35.715727],[139.763416,35.7219],[139.764845,35.72762],[139.762304,35.731618],[139.765794,35.727693],[139.7795,35.724829],[139.791523,35.731312],[139.795167,35.728925],[139.809803,35.728033],[139.807324,35.71813],[139.797995,35.709027],[139.788896,35.694803],[139.773393,35.701753],[139.773268,35.705006],[139.769958,35.705235],[139.772449,35.708312],[139.76659,35.708628],[139.767727,35.712768]]]]},"properties":{"name":"台東区"}},{"type":"Feature","geometry":{"type":"MultiPolygon","coordinates":[[[[139.804701,35.688347],[139.793449,35.690717],[139.79047,35.689212],[139.788896,35.694803],[139.797995,35.709027],[139.807324,35.71813],[139.814463,35.739454],[139.820296,35.743506],[139.825369,35.73545],[139.84284,35.719015],[139.833186,35.71581],[139.839793,35.710099],[139.834642,35.705596],[139.835453,35.703182],[139.81864,35.708092],[139.819646,35.693326],[139.811365,35.692072],[139.809558,35.686944],[139.804848,35.686699],[139.804701,35.688347]]]]},"properties":{"name":"墨田区"}},{"type":"Feature","geometry":{"type":"MultiPolygon","coordinates":[[[[139.786825,35.674288],[139.792679,35.683542],[139.79047,35.689212],[139.792393,35.690668],[139.809558,35.686944],[139.811365,35.692072],[139.819646,35.693326],[139.81864,35.708092],[139.835453,35.703182],[139.846476,35.696994],[139.848057,35.691945],[139.845643,35.681218],[139.848543,35.679655],[139.842476,35.591532],[139.834757,35.601137],[139.811706,35.588649],[139.804437,35.597683],[139.788571,35.58887],[139.784451,35.591295],[139.771834,35.608812],[139.766725,35.616626],[139.773647,35.620363],[139.771221,35.623545],[139.78293,35.630497],[139.777029,35.637582],[139.768166,35.640201],[139.789773,35.654184],[139.786825,35.674288]]]]},"properties":{"name":"江東区"}},{"type":"Feature","geometry":{"type":"MultiPolygon","coordinates":[[[[139.714519,35.629195],[139.704069,35.624772],[139.696218,35.624955],[139.703976,35.622022],[139.695799,35.613594],[139.695187,35.608106],[139.700869,35.601602],[139.714873,35.599906],[139.719154,35.592021],[139.720991,35.594431],[139.728079,35.594548],[139.730385,35.592156],[139.729909,35.587279],[139.747966,35.590594],[139.748489,35.588863],[139.755256,35.589717],[139.755422,35.584491],[139.762898,35.584665],[139.762328,35.594946],[139.767099,35.592535],[139.779902,35.599025],[139.766725,35.616626],[139.773647,35.620363],[139.766706,35.627506],[139.757541,35.627735],[139.757684,35.624298],[139.75122,35.625274],[139.746441,35.623134],[139.73801,35.624953],[139.735309,35.623036],[139.726213,35.634889],[139.71735,35.635139],[139.716764,35.639911],[139.718966,35.641594],[139.713197,35.638632],[139.714519,35.629195]]]]},"properties":{"name":"品川区"}},{"type":"Feature","geometry":{"type":"MultiPolygon","coordinates":[[[[139.714519,35.629195],[139.704069,35.624772],[139.696218,35.624955],[139.703976,35.622022],[139.695799,35.613594],[139.695603,35.608163],[139.684213,35.613079],[139.684297,35.602236],[139.680614,35.604127],[139.681145,35.600664],[139.677011,35.608152],[139.668159,35.606518],[139.663304,35.608539],[139.663091,35.615196],[139.666443,35.620856],[139.661806,35.627484],[139.661608,35.631945],[139.672074,35.629954],[139.679387,35.625052],[139.686615,35.63939],[139.684243,35.642548],[139.684687,35.651388],[139.68246,35.652266],[139.684154,35.652847],[139.674954,35.664115],[139.687269,35.661671],[139.696089,35.650844],[139.708791,35.642109],[139.71775,35.641577],[139.713197,35.638632],[139.714519,35.629195]]]]},"properties":{"name":"目黒区"}},{"type":"Feature","geometry":{"type":"MultiPolygon","coordinates":[[[[139.695187,35.608106],[139.700869,35.601602],[139.714873,35.599906],[139.719154,35.592021],[139.720991,35.594431],[139.728079,35.594548],[139.730385,35.592156],[139.729909,35.587279],[139.747966,35.590594],[139.748489,35.588863],[139.755256,35.589717],[139.755422,35.584491],[139.762898,35.584665],[139.762328,35.594946],[139.767099,35.592535],[139.779902,35.599025],[139.784451,35.591295],[139.788571,35.58887],[139.804437,35.597683],[139.811706,35.588649],[139.797422,35.580991],[139.857815,35.530828],[139.857751,35.481656],[139.818481,35.507348],[139.810824,35.514569],[139.756838,35.544562],[139.739399,35.545103],[139.733747,35.540866],[139.726561,35.543575],[139.718201,35.538305],[139.710136,35.536457],[139.700371,35.538118],[139.698073,35.544725],[139.703531,35.549411],[139.703733,35.552607],[139.678787,35.562987],[139.668706,35.58559],[139.663799,35.589805],[139.655494,35.589977],[139.658215,35.593461],[139.652825,35.595989],[139.659316,35.60001],[139.669842,35.599233],[139.675974,35.59174],[139.680807,35.594849],[139.680614,35.604127],[139.684297,35.602236],[139.684213,35.613079],[139.695187,35.608106]]]]},"properties":{"name":"大田区"}},{"type":"Feature","geometry":{"type":"MultiPolygon","coordinates":[[[[139.646834,35.596022],[139.655494,35.589977],[139.658215,35.593461],[139.652825,35.595989],[139.659316,35.60001],[139.669842,35.599233],[139.675974,35.59174],[139.680807,35.594849],[139.680195,35.603029],[139.677198,35.608043],[139.667318,35.60662],[139.663304,35.608539],[139.662668,35.612541],[139.666443,35.620856],[139.661806,35.627484],[139.661608,35.631945],[139.672074,35.629954],[139.679387,35.625052],[139.686615,35.63939],[139.684243,35.642548],[139.684687,35.651388],[139.68246,35.652266],[139.684154,35.652847],[139.676688,35.659904],[139.672821,35.672206],[139.661519,35.67278],[139.637688,35.665968],[139.624868,35.669259],[139.610712,35.676509],[139.613433,35.672798],[139.616676,35.67255],[139.616474,35.669883],[139.609198,35.670212],[139.608489,35.676434],[139.602957,35.680654],[139.585147,35.68276],[139.59197,35.681796],[139.585144,35.68248],[139.588673,35.679364],[139.586602,35.677388],[139.587919,35.674426],[139.582386,35.673349],[139.588698,35.670622],[139.590108,35.665998],[139.586928,35.663801],[139.590128,35.66125],[139.590102,35.656459],[139.593175,35.652585],[139.592263,35.645987],[139.586811,35.6462],[139.584267,35.641192],[139.594168,35.627076],[139.59245,35.62375],[139.589651,35.624571],[139.590303,35.618357],[139.598988,35.618548],[139.618321,35.6137],[139.646834,35.596022]]]]},"properties":{"name":"世田谷区"}},{"type":"Feature","geometry":{"type":"MultiPolygon","coordinates":[[[[139.718236,35.657068],[139.722965,35.656366],[139.721624,35.652361],[139.723926,35.646729],[139.719285,35.641485],[139.715337,35.643061],[139.710262,35.641501],[139.696089,35.650844],[139.687269,35.661671],[139.674713,35.664242],[139.672821,35.672206],[139.661611,35.671562],[139.661378,35.674604],[139.683524,35.692101],[139.683158,35.688629],[139.685739,35.687765],[139.687441,35.681722],[139.702154,35.689345],[139.7145,35.680748],[139.712699,35.674422],[139.716689,35.672425],[139.714837,35.672949],[139.715095,35.669645],[139.708744,35.664182],[139.713971,35.659744],[139.712666,35.658549],[139.718236,35.657068]]]]},"properties":{"name":"渋谷区"}},{"type":"Feature","geometry":{"type":"MultiPolygon","coordinates":[[[[139.684609,35.710349],[139.680028,35.711053],[139.682025,35.713302],[139.679184,35.714771],[139.678917,35.718131],[139.675303,35.720038],[139.673445,35.718484],[139.67799,35.73062],[139.673671,35.733586],[139.664976,35.73133],[139.659694,35.725725],[139.639623,35.726166],[139.633404,35.735503],[139.627237,35.735027],[139.624272,35.72964],[139.632032,35.717101],[139.641562,35.714898],[139.642703,35.711716],[139.65099,35.709031],[139.657949,35.709244],[139.658046,35.705194],[139.661015,35.704811],[139.662391,35.69884],[139.660972,35.6948],[139.667399,35.693627],[139.667799,35.69137],[139.659173,35.686695],[139.659443,35.679991],[139.663913,35.67961],[139.664027,35.676561],[139.685399,35.693993],[139.688358,35.699147],[139.688308,35.706926],[139.694286,35.711027],[139.684609,35.710349]]]]},"properties":{"name":"中野区"}},{"type":"Feature","geometry":{"type":"MultiPolygon","coordinates":[[[[139.649707,35.709751],[139.657949,35.709244],[139.658046,35.705194],[139.661015,35.704811],[139.662391,35.69884],[139.660972,35.6948],[139.667399,35.693627],[139.667799,35.69137],[139.659173,35.686695],[139.659443,35.679991],[139.664763,35.677976],[139.661519,35.67278],[139.637688,35.665968],[139.624868,35.669259],[139.610712,35.676509],[139.613433,35.672798],[139.616676,35.67255],[139.616474,35.669883],[139.609198,35.670212],[139.608489,35.676434],[139.602957,35.680654],[139.592843,35.682931],[139.590552,35.686885],[139.593841,35.688835],[139.58675,35.694147],[139.590131,35.694794],[139.595505,35.705678],[139.586731,35.711717],[139.585178,35.717805],[139.589734,35.720275],[139.593939,35.718094],[139.595782,35.722043],[139.601868,35.725784],[139.620219,35.731427],[139.624463,35.730087],[139.632032,35.717101],[139.641385,35.714973],[139.642703,35.711716],[139.649707,35.709751]]]]},"properties":{"name":"杉並区"}},{"type":"Feature","geometry":{"type":"MultiPolygon","coordinates":[[[[139.741697,35.730747],[139.745292,35.73591],[139.748953,35.732832],[139.75259,35.735248],[139.74678,35.739886],[139.744066,35.738894],[139.744671,35.740804],[139.741147,35.742332],[139.735041,35.740635],[139.731964,35.743217],[139.732837,35.744981],[139.727878,35.745115],[139.72404,35.739644],[139.720114,35.741951],[139.719774,35.745125],[139.710467,35.745984],[139.703582,35.735779],[139.698696,35.742301],[139.692706,35.743478],[139.681083,35.738754],[139.677527,35.729561],[139.684395,35.722689],[139.704689,35.722792],[139.705805,35.713621],[139.711946,35.714801],[139.720127,35.712297],[139.7221,35.712622],[139.717261,35.71461],[139.717735,35.717355],[139.725047,35.719785],[139.722678,35.725029],[139.726359,35.727067],[139.731963,35.724106],[139.735579,35.724929],[139.737441,35.726858],[139.736421,35.730517],[139.741697,35.730747]]]]},"properties":{"name":"豊島区"}},{"type":"Feature","geometry":{"type":"MultiPolygon","coordinates":[[[[139.727729,35.744481],[139.732837,35.744981],[139.731964,35.743217],[139.735474,35.740534],[139.741514,35.742192],[139.744671,35.740804],[139.744066,35.738894],[139.74678,35.739886],[139.76015,35.731711],[139.7707,35.737912],[139.764089,35.7441],[139.760128,35.743431],[139.757197,35.745217],[139.757973,35.747471],[139.749636,35.750287],[139.751024,35.753609],[139.757263,35.753162],[139.75777,35.754846],[139.749806,35.756586],[139.748212,35.75918],[139.760158,35.765597],[139.759675,35.767461],[139.758521,35.769051],[139.746387,35.767055],[139.73632,35.770462],[139.739087,35.786859],[139.73604,35.789108],[139.724679,35.787149],[139.721146,35.791439],[139.706337,35.793061],[139.697264,35.798647],[139.689465,35.786797],[139.69565,35.782459],[139.702406,35.784282],[139.706596,35.767051],[139.722406,35.753549],[139.720006,35.742104],[139.725597,35.739666],[139.727729,35.744481]]]]},"properties":{"name":"北区"}},{"type":"Feature","geometry":{"type":"MultiPolygon","coordinates":[[[[139.789112,35.7441],[139.79113,35.750523],[139.782306,35.754074],[139.75777,35.754846],[139.757263,35.753162],[139.751024,35.753609],[139.749453,35.751092],[139.757973,35.747471],[139.757197,35.745217],[139.760128,35.743431],[139.764089,35.7441],[139.770633,35.738386],[139.761486,35.733763],[139.765794,35.727693],[139.778083,35.724975],[139.788866,35.728221],[139.791523,35.731312],[139.795167,35.728925],[139.809803,35.728033],[139.814479,35.736521],[139.814098,35.740258],[139.800868,35.738733],[139.792656,35.740598],[139.789112,35.7441]]]]},"properties":{"name":"荒川区"}},{"type":"Feature","geometry":{"type":"MultiPolygon","coordinates":[[[[139.706482,35.767889],[139.72114,35.755423],[139.722756,35.751863],[139.72123,35.746286],[139.710226,35.745926],[139.703582,35.735779],[139.698696,35.742301],[139.692706,35.743478],[139.680266,35.738606],[139.678982,35.740651],[139.680977,35.743925],[139.672313,35.74451],[139.674986,35.751993],[139.668939,35.767347],[139.647515,35.768512],[139.642683,35.770749],[139.634825,35.768698],[139.629203,35.771924],[139.629612,35.776983],[139.624543,35.779871],[139.632266,35.789065],[139.637473,35.790784],[139.640291,35.79803],[139.648032,35.797157],[139.654447,35.800305],[139.679945,35.798928],[139.691384,35.80079],[139.695097,35.79975],[139.69527,35.797694],[139.689465,35.786797],[139.69565,35.782459],[139.702406,35.784282],[139.706482,35.767889]]]]},"properties":{"name":"板橋区"}},{"type":"Feature","geometry":{"type":"MultiPolygon","coordinates":[[[[139.681144,35.737726],[139.678985,35.740345],[139.680977,35.743925],[139.672313,35.74451],[139.674986,35.751993],[139.668939,35.767347],[139.647515,35.768512],[139.642683,35.770749],[139.634825,35.768698],[139.629203,35.771924],[139.629612,35.776983],[139.624543,35.779871],[139.625383,35.772766],[139.623203,35.766686],[139.617682,35.766587],[139.617203,35.770272],[139.611424,35.769488],[139.611035,35.771177],[139.608702,35.769078],[139.606408,35.771298],[139.598684,35.769007],[139.597326,35.7713],[139.602767,35.775624],[139.588761,35.778784],[139.582388,35.771078],[139.578088,35.771243],[139.577019,35.767925],[139.57036,35.765546],[139.571543,35.76342],[139.562899,35.761548],[139.569355,35.751248],[139.569112,35.747815],[139.566467,35.74726],[139.567326,35.736148],[139.56948,35.734029],[139.565393,35.721498],[139.575017,35.718818],[139.586731,35.711717],[139.585088,35.716994],[139.586772,35.719554],[139.593939,35.718094],[139.595782,35.722043],[139.601868,35.725784],[139.620219,35.731427],[139.624463,35.730087],[139.627237,35.735027],[139.633511,35.735455],[139.639623,35.726166],[139.659694,35.725725],[139.664814,35.731229],[139.67125,35.73371],[139.67799,35.73062],[139.681144,35.737726]]],[[[139.566629,35.763388],[139.566629,35.763388]]]]},"properties":{"name":"練馬区"}},{"type":"Feature","geometry":{"type":"MultiPolygon","coordinates":[[[[139.815524,35.750988],[139.813485,35.759456],[139.819824,35.760502],[139.820267,35.755942],[139.822934,35.755598],[139.824153,35.761863],[139.827013,35.762173],[139.825565,35.758009],[139.829515,35.757608],[139.831579,35.763748],[139.837569,35.763333],[139.837959,35.766001],[139.845374,35.769321],[139.85127,35.7697],[139.85223,35.765625],[139.856294,35.764179],[139.858184,35.7661],[139.857808,35.770644],[139.845271,35.787787],[139.844449,35.794248],[139.846829,35.796379],[139.84388,35.799517],[139.837472,35.800645],[139.832558,35.795486],[139.827376,35.793792],[139.822502,35.795655],[139.819593,35.799468],[139.825017,35.81208],[139.821257,35.815027],[139.820784,35.811314],[139.814893,35.808717],[139.803557,35.80878],[139.794591,35.805243],[139.780828,35.807245],[139.769801,35.817377],[139.750849,35.810374],[139.750611,35.806406],[139.760583,35.797541],[139.759972,35.794842],[139.755239,35.790031],[139.755455,35.787286],[139.746744,35.786728],[139.745343,35.78312],[139.738038,35.780177],[139.735691,35.772419],[139.746387,35.767055],[139.758521,35.769051],[139.760158,35.765597],[139.748825,35.759876],[139.748736,35.757417],[139.764345,35.754019],[139.788802,35.752712],[139.791439,35.749706],[139.788451,35.746744],[139.789704,35.743306],[139.800868,35.738733],[139.811176,35.741228],[139.814463,35.739454],[139.820296,35.743506],[139.815524,35.750988]]]]},"properties":{"name":"足立区"}},{"type":"Feature","geometry":{"type":"MultiPolygon","coordinates":[[[[139.813353,35.759374],[139.814387,35.752422],[139.825369,35.73545],[139.850978,35.71087],[139.856668,35.714268],[139.867315,35.711999],[139.868495,35.714108],[139.866238,35.718578],[139.870918,35.724749],[139.869965,35.728917],[139.874228,35.736041],[139.872806,35.737445],[139.876638,35.73695],[139.876749,35.741043],[139.880204,35.74032],[139.884911,35.745525],[139.880658,35.749692],[139.889686,35.751213],[139.883204,35.758624],[139.879843,35.769726],[139.894538,35.780908],[139.888104,35.783998],[139.872736,35.782244],[139.871312,35.788383],[139.877565,35.79486],[139.873897,35.797137],[139.859634,35.795297],[139.856064,35.790832],[139.846631,35.79621],[139.844206,35.792849],[139.845271,35.787787],[139.857808,35.770644],[139.858184,35.7661],[139.856294,35.764179],[139.85223,35.765625],[139.85127,35.7697],[139.845374,35.769321],[139.837959,35.766001],[139.837569,35.763333],[139.831579,35.763748],[139.829515,35.757608],[139.825565,35.758009],[139.827013,35.762173],[139.824153,35.761863],[139.822934,35.755598],[139.820267,35.755942],[139.819824,35.760502],[139.813353,35.759374]]]]},"properties":{"name":"葛飾区"}},{"type":"Feature","geometry":{"type":"MultiPolygon","coordinates":[[[[139.844967,35.716886],[139.84284,35.719015],[139.833124,35.715581],[139.839793,35.710099],[139.834537,35.70419],[139.844674,35.698959],[139.848008,35.693744],[139.845643,35.681218],[139.848543,35.679655],[139.842476,35.591532],[139.834757,35.601137],[139.797422,35.580991],[139.857815,35.530828],[139.857845,35.601831],[139.869109,35.621988],[139.869689,35.633037],[139.873781,35.639834],[139.883491,35.645119],[139.8869,35.653734],[139.886428,35.678566],[139.90715,35.684384],[139.918888,35.698919],[139.91618,35.708013],[139.897978,35.724289],[139.900678,35.741351],[139.898554,35.74541],[139.889686,35.751213],[139.880658,35.749692],[139.884911,35.745525],[139.880204,35.74032],[139.876749,35.741043],[139.876638,35.73695],[139.872806,35.737445],[139.874228,35.736041],[139.869965,35.728917],[139.870918,35.724749],[139.866238,35.718578],[139.867764,35.712123],[139.856668,35.714268],[139.850978,35.71087],[139.844967,35.716886]]]]},"properties":{"name":"江戸川区"}}]}